EUTELSAT 8 WEST B       
1 40875U 15039B   25316.23980956 -.00000069  00000+0  00000+0 0  9995
2 40875   0.0687   4.2565 0004031 230.8051 254.9083  1.00272013 37485
EUTELSAT 9B             
1 41310U 16005A   25316.17186251  .00000058  00000+0  00000+0 0  9990
2 41310   0.0560  75.9560 0004493 176.2987 230.2000  1.00272358 35940
EUTELSAT 65 WEST A      
1 41382U 16014A   25316.28088418 -.00000280  00000+0  00000+0 0  9995
2 41382   0.1004  58.6698 0002674 186.5424 202.3964  1.00271027 35369
EUTELSAT 117 WEST B     
1 41589U 16038B   25315.64743461 -.00000016  00000+0  00000+0 0  9992
2 41589   0.0097 132.8022 0000212 326.3993  67.9212  1.00273049 34485
EUTELSAT 172B           
1 42741U 17029B   25316.20418936 -.00000010  00000+0  00000+0 0  9997
2 42741   0.0216 181.8650 0000069 107.3657   7.8839  1.00269934 31555
EUTELSAT 7C             
1 44334U 19034B   25316.17151584  .00000045  00000+0  00000+0 0  9991
2 44334   0.0687 182.1170 0003206  32.9250 265.2836  1.00271832  4665
EUTELSAT 5 WEST B       
1 44624U 19067A   25316.24041624 -.00000046  00000+0  00000+0 0  9992
2 44624   0.0667 349.1685 0003459 246.5118 257.5075  1.00271056 22260
EUTELSAT KONNECT        
1 45027U 20005B   25316.10015369  .00000045  00000+0  00000+0 0  9994
2 45027   0.0661  94.0218 0001618 196.0269 164.6862  1.00269205 22154
